{
  "type": "FeatureCollection",
  "features": [
    {
      "type": "Feature",
      "properties": {
        "norad_id": 19071,
        "name": "OSCAR 32",
        "group": "nnss",
        "lat": -10.810976013418315,
        "lon": 16.590057231709693,
        "alt_km": 1300.400153933192,
        "timestamp": "2025-12-12T20:43:07.303685+00:00",
        "meta_object_name": "OSCAR 32",
        "meta_object_id": "1988-033B",
        "meta_epoch": "2025-12-12T03:03:00.403200",
        "meta_mean_motion": 13.27953837,
        "meta_eccentricity": 0.01883021,
        "meta_inclination": 90.3217,
        "meta_ra_of_asc_node": 16.5056,
        "meta_arg_of_pericenter": 168.4945,
        "meta_mean_anomaly": 263.5055,
        "meta_ephemeris_type": 0,
        "meta_classification_type": "U",
        "meta_norad_cat_id": 19071,
        "meta_element_set_no": 999,
        "meta_rev_at_epoch": 82257,
        "meta_bstar": 0.00014196861,
        "meta_mean_motion_dot": 8e-07,
        "meta_mean_motion_ddot": 0,
        "tle_line1": "1 19071U 88033B   25346.12708800  .00000080  00000+0  14197-3 0  9998",
        "tle_line2": "2 19071  90.3217  16.5056 0188302 168.4945 263.5055 13.27953837822572"
      },
      "geometry": {
        "type": "Point",
        "coordinates": [
          16.590057231709693,
          -10.810976013418315
        ]
      }
    },
    {
      "type": "Feature",
      "properties": {
        "norad_id": 19223,
        "name": "NOVA 2",
        "group": "nnss",
        "lat": -4.597474228769227,
        "lon": -101.72665403799868,
        "alt_km": 1199.6403180928519,
        "timestamp": "2025-12-12T20:43:07.303696+00:00",
        "meta_object_name": "NOVA 2",
        "meta_object_id": "1988-052A",
        "meta_epoch": "2025-12-12T07:22:54.083424",
        "meta_mean_motion": 13.22935808,
        "meta_eccentricity": 0.00306276,
        "meta_inclination": 89.9872,
        "meta_ra_of_asc_node": 78.273,
        "meta_arg_of_pericenter": 18.0831,
        "meta_mean_anomaly": 41.2587,
        "meta_ephemeris_type": 0,
        "meta_classification_type": "U",
        "meta_norad_cat_id": 19223,
        "meta_element_set_no": 999,
        "meta_rev_at_epoch": 80942,
        "meta_bstar": 0.00020194066,
        "meta_mean_motion_dot": 9.4e-07,
        "meta_mean_motion_ddot": 0,
        "tle_line1": "1 19223U 88052A   25346.30757041  .00000094  00000+0  20194-3 0  9998",
        "tle_line2": "2 19223  89.9872  78.2730 0030627  18.0831  41.2587 13.22935808809429"
      },
      "geometry": {
        "type": "Point",
        "coordinates": [
          -101.72665403799868,
          -4.597474228769227
        ]
      }
    },
    {
      "type": "Feature",
      "properties": {
        "norad_id": 19419,
        "name": "OSCAR 25",
        "group": "nnss",
        "lat": -89.78692481338979,
        "lon": -169.1606022073973,
        "alt_km": 1042.5132103424858,
        "timestamp": "2025-12-12T20:43:07.303706+00:00",
        "meta_object_name": "OSCAR 25",
        "meta_object_id": "1988-074A",
        "meta_epoch": "2025-12-12T03:36:13.830912",
        "meta_mean_motion": 13.42623105,
        "meta_eccentricity": 0.00944299,
        "meta_inclination": 90.0348,
        "meta_ra_of_asc_node": 20.2423,
        "meta_arg_of_pericenter": 247.5604,
        "meta_mean_anomaly": 177.0027,
        "meta_ephemeris_type": 0,
        "meta_classification_type": "U",
        "meta_norad_cat_id": 19419,
        "meta_element_set_no": 999,
        "meta_rev_at_epoch": 82632,
        "meta_bstar": 0.0001977396,
        "meta_mean_motion_dot": 1.23e-06,
        "meta_mean_motion_ddot": 0,
        "tle_line1": "1 19419U 88074A   25346.15016008  .00000123  00000+0  19774-3 0  9998",
        "tle_line2": "2 19419  90.0348  20.2423 0094429 247.5604 177.0027 13.42623105826321"
      },
      "geometry": {
        "type": "Point",
        "coordinates": [
          -169.1606022073973,
          -89.78692481338979
        ]
      }
    },
    {
      "type": "Feature",
      "properties": {
        "norad_id": 19420,
        "name": "OSCAR 31",
        "group": "nnss",
        "lat": 27.86193880439802,
        "lon": -159.38595241620322,
        "alt_km": 1094.8896740921964,
        "timestamp": "2025-12-12T20:43:07.303716+00:00",
        "meta_object_name": "OSCAR 31",
        "meta_object_id": "1988-074B",
        "meta_epoch": "2025-12-12T04:11:40.444224",
        "meta_mean_motion": 13.42584529,
        "meta_eccentricity": 0.00927101,
        "meta_inclination": 90.0364,
        "meta_ra_of_asc_node": 20.5923,
        "meta_arg_of_pericenter": 241.5752,
        "meta_mean_anomaly": 185.7364,
        "meta_ephemeris_type": 0,
        "meta_classification_type": "U",
        "meta_norad_cat_id": 19420,
        "meta_element_set_no": 999,
        "meta_rev_at_epoch": 82643,
        "meta_bstar": 0.00019150289,
        "meta_mean_motion_dot": 1.2e-06,
        "meta_mean_motion_ddot": 0,
        "tle_line1": "1 19420U 88074B   25346.17477366  .00000120  00000+0  19150-3 0  9995",
        "tle_line2": "2 19420  90.0364  20.5923 0092710 241.5752 185.7364 13.42584529826436"
      },
      "geometry": {
        "type": "Point",
        "coordinates": [
          -159.38595241620322,
          27.86193880439802
        ]
      }
    }
  ]
}